{
  "type": "FeatureCollection",
  "features": [
    {
      "type": "Feature",
      "properties": {
        "norad_id": 52912,
        "name": "GAOFEN-12 03",
        "group": "resource",
        "lat": 32.7389055404545,
        "lon": 65.5769521959238,
        "alt_km": 628.6334608845491,
        "timestamp": "2025-12-19T06:59:43.561904+00:00",
        "meta_object_name": "GAOFEN-12 03",
        "meta_object_id": "2022-069A",
        "meta_epoch": "2025-12-18T23:50:31.839648",
        "meta_mean_motion": 14.79624519,
        "meta_eccentricity": 0.000202,
        "meta_inclination": 97.8489,
        "meta_ra_of_asc_node": 240.1975,
        "meta_arg_of_pericenter": 55.0637,
        "meta_mean_anomaly": 305.0764,
        "meta_ephemeris_type": 0,
        "meta_classification_type": "U",
        "meta_norad_cat_id": 52912,
        "meta_element_set_no": 999,
        "meta_rev_at_epoch": 18796,
        "meta_bstar": 0.00016857707,
        "meta_mean_motion_dot": 1.213e-05,
        "meta_mean_motion_ddot": 0,
        "tle_line1": "1 52912U 22069A   25352.99342407  .00001213  00000+0  16858-3 0  9990",
        "tle_line2": "2 52912  97.8489 240.1975 0002020  55.0637 305.0764 14.79624519187968"
      },
      "geometry": {
        "type": "Point",
        "coordinates": [
          65.5769521959238,
          32.7389055404545
        ]
      }
    },
    {
      "type": "Feature",
      "properties": {
        "norad_id": 54754,
        "name": "SWOT",
        "group": "resource",
        "lat": 51.98452210458598,
        "lon": -65.52356739141038,
        "alt_km": 887.992279558378,
        "timestamp": "2025-12-19T06:59:43.561914+00:00",
        "meta_object_name": "SWOT",
        "meta_object_id": "2022-173A",
        "meta_epoch": "2025-12-18T22:09:54.086688",
        "meta_mean_motion": 14.00167779,
        "meta_eccentricity": 3.647e-05,
        "meta_inclination": 77.6108,
        "meta_ra_of_asc_node": 278.6423,
        "meta_arg_of_pericenter": 96.1518,
        "meta_mean_anomaly": 263.9675,
        "meta_ephemeris_type": 0,
        "meta_classification_type": "U",
        "meta_norad_cat_id": 54754,
        "meta_element_set_no": 999,
        "meta_rev_at_epoch": 15392,
        "meta_bstar": 3.6365772e-05,
        "meta_mean_motion_dot": 5.1e-07,
        "meta_mean_motion_ddot": 0,
        "tle_line1": "1 54754U 22173A   25352.92354267  .00000051  00000+0  36366-4 0  9998",
        "tle_line2": "2 54754  77.6108 278.6423 0000364  96.1518 263.9675 14.00167779153921"
      },
      "geometry": {
        "type": "Point",
        "coordinates": [
          -65.52356739141038,
          51.98452210458598
        ]
      }
    },
    {
      "type": "Feature",
      "properties": {
        "norad_id": 57654,
        "name": "GAOFEN-12 04",
        "group": "resource",
        "lat": -41.015331183075425,
        "lon": -84.10293626174459,
        "alt_km": 637.1833116740727,
        "timestamp": "2025-12-19T06:59:43.561924+00:00",
        "meta_object_name": "GAOFEN-12 04",
        "meta_object_id": "2023-123A",
        "meta_epoch": "2025-12-18T23:04:04.891872",
        "meta_mean_motion": 14.79717381,
        "meta_eccentricity": 0.00012406,
        "meta_inclination": 97.9126,
        "meta_ra_of_asc_node": 268.624,
        "meta_arg_of_pericenter": 76.1935,
        "meta_mean_anomaly": 283.9414,
        "meta_ephemeris_type": 0,
        "meta_classification_type": "U",
        "meta_norad_cat_id": 57654,
        "meta_element_set_no": 999,
        "meta_rev_at_epoch": 12597,
        "meta_bstar": 0.00014302381,
        "meta_mean_motion_dot": 1.023e-05,
        "meta_mean_motion_ddot": 0,
        "tle_line1": "1 57654U 23123A   25352.96116773  .00001023  00000+0  14302-3 0  9993",
        "tle_line2": "2 57654  97.9126 268.6240 0001240  76.1935 283.9414 14.79717381125972"
      },
      "geometry": {
        "type": "Point",
        "coordinates": [
          -84.10293626174459,
          -41.015331183075425
        ]
      }
    },
    {
      "type": "Feature",
      "properties": {
        "norad_id": 59065,
        "name": "PARS 1",
        "group": "resource",
        "lat": -0.5871945507747871,
        "lon": -35.55928868526132,
        "alt_km": 440.97335908090736,
        "timestamp": "2025-12-19T06:59:43.561935+00:00",
        "meta_object_name": "PARS 1",
        "meta_object_id": "2024-039Q",
        "meta_epoch": "2025-12-18T23:12:22.908384",
        "meta_mean_motion": 15.41111256,
        "meta_eccentricity": 0.00121741,
        "meta_inclination": 97.4635,
        "meta_ra_of_asc_node": 324.0322,
        "meta_arg_of_pericenter": 53.4847,
        "meta_mean_anomaly": 306.7518,
        "meta_ephemeris_type": 0,
        "meta_classification_type": "U",
        "meta_norad_cat_id": 59065,
        "meta_element_set_no": 999,
        "meta_rev_at_epoch": 10084,
        "meta_bstar": 0.00023011266,
        "meta_mean_motion_dot": 9.46e-05,
        "meta_mean_motion_ddot": 0,
        "tle_line1": "1 59065U 24039Q   25352.96693181  .00009460  00000+0  23011-3 0  9991",
        "tle_line2": "2 59065  97.4635 324.0322 0012174  53.4847 306.7518 15.41111256100843"
      },
      "geometry": {
        "type": "Point",
        "coordinates": [
          -35.55928868526132,
          -0.5871945507747871
        ]
      }
    },
    {
      "type": "Feature",
      "properties": {
        "norad_id": 59371,
        "name": "RESURS-P 4",
        "group": "resource",
        "lat": -67.79932607648549,
        "lon": -42.32295243897537,
        "alt_km": 477.17620820356933,
        "timestamp": "2025-12-19T06:59:43.561949+00:00",
        "meta_object_name": "RESURS-P 4",
        "meta_object_id": "2024-061A",
        "meta_epoch": "2025-12-18T23:27:31.472640",
        "meta_mean_motion": 15.32133227,
        "meta_eccentricity": 0.00010834,
        "meta_inclination": 97.2552,
        "meta_ra_of_asc_node": 299.1794,
        "meta_arg_of_pericenter": 59.0473,
        "meta_mean_anomaly": 301.0876,
        "meta_ephemeris_type": 0,
        "meta_classification_type": "U",
        "meta_norad_cat_id": 59371,
        "meta_element_set_no": 999,
        "meta_rev_at_epoch": 9616,
        "meta_bstar": 0.00010645829,
        "meta_mean_motion_dot": 3.227e-05,
        "meta_mean_motion_ddot": 0,
        "tle_line1": "1 59371U 24061A   25352.97744760  .00003227  00000+0  10646-3 0  9992",
        "tle_line2": "2 59371  97.2552 299.1794 0001083  59.0473 301.0876 15.32133227 96164"
      },
      "geometry": {
        "type": "Point",
        "coordinates": [
          -42.32295243897537,
          -67.79932607648549
        ]
      }
    },
    {
      "type": "Feature",
      "properties": {
        "norad_id": 59625,
        "name": "LEGION 1",
        "group": "resource",
        "lat": 30.712166575223936,
        "lon": -107.6242270137045,
        "alt_km": 516.6537387553763,
        "timestamp": "2025-12-19T06:59:43.561960+00:00",
        "meta_object_name": "LEGION 1",
        "meta_object_id": "2024-081A",
        "meta_epoch": "2025-12-18T22:25:22.686240",
        "meta_mean_motion": 15.16539116,
        "meta_eccentricity": 0.00036573,
        "meta_inclination": 97.5212,
        "meta_ra_of_asc_node": 67.5201,
        "meta_arg_of_pericenter": 289.796,
        "meta_mean_anomaly": 70.2879,
        "meta_ephemeris_type": 0,
        "meta_classification_type": "U",
        "meta_norad_cat_id": 59625,
        "meta_element_set_no": 999,
        "meta_rev_at_epoch": 9021,
        "meta_bstar": 0.00019448822,
        "meta_mean_motion_dot": 3.726e-05,
        "meta_mean_motion_ddot": 0,
        "tle_line1": "1 59625U 24081A   25352.93429035  .00003726  00000+0  19449-3 0  9991",
        "tle_line2": "2 59625  97.5212  67.5201 0003657 289.7960  70.2879 15.16539116 90211"
      },
      "geometry": {
        "type": "Point",
        "coordinates": [
          -107.6242270137045,
          30.712166575223936
        ]
      }
    },
    {
      "type": "Feature",
      "properties": {
        "norad_id": 59626,
        "name": "LEGION 2",
        "group": "resource",
        "lat": -30.784700629628816,
        "lon": 72.47671526065909,
        "alt_km": 520.6137921624104,
        "timestamp": "2025-12-19T06:59:43.561970+00:00",
        "meta_object_name": "LEGION 2",
        "meta_object_id": "2024-081B",
        "meta_epoch": "2025-12-18T21:37:51.325536",
        "meta_mean_motion": 15.1655105,
        "meta_eccentricity": 0.00056216,
        "meta_inclination": 97.5215,
        "meta_ra_of_asc_node": 67.5751,
        "meta_arg_of_pericenter": 266.8054,
        "meta_mean_anomaly": 93.2536,
        "meta_ephemeris_type": 0,
        "meta_classification_type": "U",
        "meta_norad_cat_id": 59626,
        "meta_element_set_no": 999,
        "meta_rev_at_epoch": 9021,
        "meta_bstar": 0.0002220258,
        "meta_mean_motion_dot": 4.265e-05,
        "meta_mean_motion_ddot": 0,
        "tle_line1": "1 59626U 24081B   25352.90128849  .00004265  00000+0  22203-3 0  9999",
        "tle_line2": "2 59626  97.5215  67.5751 0005621 266.8054  93.2536 15.16551050 90214"
      },
      "geometry": {
        "type": "Point",
        "coordinates": [
          72.47671526065909,
          -30.784700629628816
        ]
      }
    }
  ]
}